[{"OBJECT_NAME":"STARLINK-5510","OBJECT_ID":"2023-021V","EPOCH":"2026-03-09T17:57:19.096416","MEAN_MOTION":14.98333238,"ECCENTRICITY":0.00032648,"INCLINATION":70.0015,"RA_OF_ASC_NODE":184.1673,"ARG_OF_PERICENTER":270.0124,"MEAN_ANOMALY":90.0661,"EPHEMERIS_TYPE":0,"CLASSIFICATION_TYPE":"U","NORAD_CAT_ID":55647,"ELEMENT_SET_NO":999,"REV_AT_EPOCH":16880,"BSTAR":1.723613e-5,"MEAN_MOTION_DOT":1.13e-6,"MEAN_MOTION_DDOT":0},{"OBJECT_NAME":"SPOT 1","OBJECT_ID":"1986-019A","EPOCH":"2026-03-09T18:07:50.597472","MEAN_MOTION":14.71225325,"ECCENTRICITY":0.01282848,"INCLINATION":98.6589,"RA_OF_ASC_NODE":355.6082,"ARG_OF_PERICENTER":216.6386,"MEAN_ANOMALY":142.5996,"EPHEMERIS_TYPE":0,"CLASSIFICATION_TYPE":"U","NORAD_CAT_ID":16613,"ELEMENT_SET_NO":999,"REV_AT_EPOCH":79637,"BSTAR":0.00023669966,"MEAN_MOTION_DOT":1.593e-5,"MEAN_MOTION_DDOT":0}]
